{
  "type": "FeatureCollection",
  "features": [
    {
      "type": "Feature",
      "properties": {
        "norad_id": 36267,
        "name": "FENGYUN 1C DEB",
        "group": "fengyun-1c-debris",
        "lat": 79.7403889964191,
        "lon": -131.5154449486474,
        "alt_km": 938.1581793562736,
        "timestamp": "2025-12-02T21:34:01.559277+00:00",
        "meta_object_name": "FENGYUN 1C DEB",
        "meta_object_id": "1999-025DWU",
        "meta_epoch": "2025-11-30T19:52:05.469312",
        "meta_mean_motion": 14.09025042,
        "meta_eccentricity": 0.01270184,
        "meta_inclination": 98.5575,
        "meta_ra_of_asc_node": 282.8095,
        "meta_arg_of_pericenter": 244.8225,
        "meta_mean_anomaly": 141.9466,
        "meta_ephemeris_type": 0,
        "meta_classification_type": "U",
        "meta_norad_cat_id": 36267,
        "meta_element_set_no": 999,
        "meta_rev_at_epoch": 86362,
        "meta_bstar": 0.0011045203,
        "meta_mean_motion_dot": 2.02e-05,
        "meta_mean_motion_ddot": 0,
        "tle_line1": "1 36267U 99025DWU 25334.82784108  .00002020  00000+0  11045-2 0  9990",
        "tle_line2": "2 36267  98.5575 282.8095 0127018 244.8225 141.9466 14.09025042863628"
      },
      "geometry": {
        "type": "Point",
        "coordinates": [
          -131.5154449486474,
          79.7403889964191
        ]
      }
    },
    {
      "type": "Feature",
      "properties": {
        "norad_id": 36269,
        "name": "FENGYUN 1C DEB",
        "group": "fengyun-1c-debris",
        "lat": -75.48016553046219,
        "lon": -43.289895670780695,
        "alt_km": 658.7762150985709,
        "timestamp": "2025-12-02T21:34:01.559287+00:00",
        "meta_object_name": "FENGYUN 1C DEB",
        "meta_object_id": "1999-025DWW",
        "meta_epoch": "2025-12-01T13:56:45.691296",
        "meta_mean_motion": 14.26937631,
        "meta_eccentricity": 0.02337858,
        "meta_inclination": 99.1061,
        "meta_ra_of_asc_node": 277.0743,
        "meta_arg_of_pericenter": 312.1017,
        "meta_mean_anomaly": 46.0492,
        "meta_ephemeris_type": 0,
        "meta_classification_type": "U",
        "meta_norad_cat_id": 36269,
        "meta_element_set_no": 999,
        "meta_rev_at_epoch": 87557,
        "meta_bstar": 0.0011932552,
        "meta_mean_motion_dot": 3.82e-05,
        "meta_mean_motion_ddot": 0,
        "tle_line1": "1 36269U 99025DWW 25335.58108439  .00003820  00000+0  11933-2 0  9998",
        "tle_line2": "2 36269  99.1061 277.0743 0233785 312.1017  46.0492 14.26937631875576"
      },
      "geometry": {
        "type": "Point",
        "coordinates": [
          -43.289895670780695,
          -75.48016553046219
        ]
      }
    },
    {
      "type": "Feature",
      "properties": {
        "norad_id": 36272,
        "name": "FENGYUN 1C DEB",
        "group": "fengyun-1c-debris",
        "lat": -4.1534011718012485,
        "lon": -146.42840234964652,
        "alt_km": 775.168326351728,
        "timestamp": "2025-12-02T21:34:01.559298+00:00",
        "meta_object_name": "FENGYUN 1C DEB",
        "meta_object_id": "1999-025DWZ",
        "meta_epoch": "2025-11-16T09:05:49.301376",
        "meta_mean_motion": 14.17162339,
        "meta_eccentricity": 0.01691484,
        "meta_inclination": 99.1396,
        "meta_ra_of_asc_node": 195.9187,
        "meta_arg_of_pericenter": 342.9224,
        "meta_mean_anomaly": 16.6299,
        "meta_ephemeris_type": 0,
        "meta_classification_type": "U",
        "meta_norad_cat_id": 36272,
        "meta_element_set_no": 999,
        "meta_rev_at_epoch": 63243,
        "meta_bstar": 0.00092343066,
        "meta_mean_motion_dot": 2.094e-05,
        "meta_mean_motion_ddot": 0,
        "tle_line1": "1 36272U 99025DWZ 25320.37904284  .00002094  00000+0  92343-3 0  9992",
        "tle_line2": "2 36272  99.1396 195.9187 0169148 342.9224  16.6299 14.17162339632432"
      },
      "geometry": {
        "type": "Point",
        "coordinates": [
          -146.42840234964652,
          -4.1534011718012485
        ]
      }
    },
    {
      "type": "Feature",
      "properties": {
        "norad_id": 36273,
        "name": "FENGYUN 1C DEB",
        "group": "fengyun-1c-debris",
        "lat": -0.16358185896133398,
        "lon": -154.40046702140555,
        "alt_km": 772.1727606127706,
        "timestamp": "2025-12-02T21:34:01.559308+00:00",
        "meta_object_name": "FENGYUN 1C DEB",
        "meta_object_id": "1999-025DXA",
        "meta_epoch": "2025-11-02T21:06:05.135904",
        "meta_mean_motion": 14.1649612,
        "meta_eccentricity": 0.0097486,
        "meta_inclination": 99.6087,
        "meta_ra_of_asc_node": 173.189,
        "meta_arg_of_pericenter": 98.9958,
        "meta_mean_anomaly": 262.2262,
        "meta_ephemeris_type": 0,
        "meta_classification_type": "U",
        "meta_norad_cat_id": 36273,
        "meta_element_set_no": 999,
        "meta_rev_at_epoch": 65669,
        "meta_bstar": 0.00031090406,
        "meta_mean_motion_dot": 5.98e-06,
        "meta_mean_motion_ddot": 0,
        "tle_line1": "1 36273U 99025DXA 25306.87922611  .00000598  00000+0  31090-3 0  9995",
        "tle_line2": "2 36273  99.6087 173.1890 0097486  98.9958 262.2262 14.16496120656691"
      },
      "geometry": {
        "type": "Point",
        "coordinates": [
          -154.40046702140555,
          -0.16358185896133398
        ]
      }
    },
    {
      "type": "Feature",
      "properties": {
        "norad_id": 36274,
        "name": "FENGYUN 1C DEB",
        "group": "fengyun-1c-debris",
        "lat": 45.05511261323979,
        "lon": -120.03740118031068,
        "alt_km": 834.9258045378474,
        "timestamp": "2025-12-02T21:34:01.559317+00:00",
        "meta_object_name": "FENGYUN 1C DEB",
        "meta_object_id": "1999-025DXB",
        "meta_epoch": "2025-12-01T11:15:57.514752",
        "meta_mean_motion": 14.23229566,
        "meta_eccentricity": 0.00617312,
        "meta_inclination": 99.1394,
        "meta_ra_of_asc_node": 49.1975,
        "meta_arg_of_pericenter": 261.9313,
        "meta_mean_anomaly": 114.0627,
        "meta_ephemeris_type": 0,
        "meta_classification_type": "U",
        "meta_norad_cat_id": 36274,
        "meta_element_set_no": 999,
        "meta_rev_at_epoch": 62825,
        "meta_bstar": 0.0029611742,
        "meta_mean_motion_dot": 6.789e-05,
        "meta_mean_motion_ddot": 0,
        "tle_line1": "1 36274U 99025DXB 25335.46941568  .00006789  00000+0  29612-2 0  9999",
        "tle_line2": "2 36274  99.1394  49.1975 0061731 261.9313 114.0627 14.23229566628251"
      },
      "geometry": {
        "type": "Point",
        "coordinates": [
          -120.03740118031068,
          45.05511261323979
        ]
      }
    },
    {
      "type": "Feature",
      "properties": {
        "norad_id": 36278,
        "name": "FENGYUN 1C DEB",
        "group": "fengyun-1c-debris",
        "lat": -34.582879512523725,
        "lon": 68.56994764095464,
        "alt_km": 851.0188001460665,
        "timestamp": "2025-12-02T21:34:01.559328+00:00",
        "meta_object_name": "FENGYUN 1C DEB",
        "meta_object_id": "1999-025DXF",
        "meta_epoch": "2025-11-25T12:20:55.957056",
        "meta_mean_motion": 14.17329318,
        "meta_eccentricity": 0.00617636,
        "meta_inclination": 99.1226,
        "meta_ra_of_asc_node": 247.3547,
        "meta_arg_of_pericenter": 339.8905,
        "meta_mean_anomaly": 19.9836,
        "meta_ephemeris_type": 0,
        "meta_classification_type": "U",
        "meta_norad_cat_id": 36278,
        "meta_element_set_no": 999,
        "meta_rev_at_epoch": 93232,
        "meta_bstar": 0.00056943864,
        "meta_mean_motion_dot": 1.126e-05,
        "meta_mean_motion_ddot": 0,
        "tle_line1": "1 36278U 99025DXF 25329.51453654  .00001126  00000+0  56944-3 0  9995",
        "tle_line2": "2 36278  99.1226 247.3547 0061763 339.8905  19.9836 14.17329318932323"
      },
      "geometry": {
        "type": "Point",
        "coordinates": [
          68.56994764095464,
          -34.582879512523725
        ]
      }
    },
    {
      "type": "Feature",
      "properties": {
        "norad_id": 36279,
        "name": "FENGYUN 1C DEB",
        "group": "fengyun-1c-debris",
        "lat": -26.674672395410703,
        "lon": -40.35196854868155,
        "alt_km": 863.9334735650282,
        "timestamp": "2025-12-02T21:34:01.559338+00:00",
        "meta_object_name": "FENGYUN 1C DEB",
        "meta_object_id": "1999-025DXG",
        "meta_epoch": "2025-11-25T16:33:32.008320",
        "meta_mean_motion": 14.14714647,
        "meta_eccentricity": 0.00629921,
        "meta_inclination": 98.56,
        "meta_ra_of_asc_node": 308.3956,
        "meta_arg_of_pericenter": 103.3746,
        "meta_mean_anomaly": 257.4461,
        "meta_ephemeris_type": 0,
        "meta_classification_type": "U",
        "meta_norad_cat_id": 36279,
        "meta_element_set_no": 999,
        "meta_rev_at_epoch": 88798,
        "meta_bstar": 0.00016006279,
        "meta_mean_motion_dot": 2.73e-06,
        "meta_mean_motion_ddot": 0,
        "tle_line1": "1 36279U 99025DXG 25329.68995380  .00000273  00000+0  16006-3 0  9998",
        "tle_line2": "2 36279  98.5600 308.3956 0062992 103.3746 257.4461 14.14714647887981"
      },
      "geometry": {
        "type": "Point",
        "coordinates": [
          -40.35196854868155,
          -26.674672395410703
        ]
      }
    }
  ]
}